NORAD_CAT_ID,OBJECT_NAME,OBJECT_TYPE,EPOCH,MEAN_MOTION,ECCENTRICITY,INCLINATION,RA_OF_ASC_NODE,ARG_OF_PERICENTER,MEAN_ANOMALY,BSTAR,MEAN_MOTION_DOT,MEAN_MOTION_DDOT,TLE_LINE0,TLE_LINE1,TLE_LINE2,SEMIMAJOR_AXIS,PERIOD,APOGEE,PERIGEE,DECAYED
52608.0,STARLINK-3979,PAYLOAD,2023-08-18 04:42:20,15.08853245,0.0001503,53.2173,154.2261,99.2329,260.8833,-7.294e-05,-1.449e-05,0.0,0 STARLINK-3979,1 52608U 22052L   23230.19606568 -.00001449  00000-0 -72940-4 0  9999,2 52608  53.2173 154.2261 0001503  99.2329 260.8833 15.08853245 70152,6917.84,95.437,540.745,538.665,0.0
52608.0,STARLINK-3979,PAYLOAD,2023-08-18 12:39:16,15.0884451,0.0001513,53.2176,152.7361,102.6716,257.4446,-0.00012169,-2.224e-05,0.0,0 STARLINK-3979,1 52608U 22052L   23230.52727134 -.00002224  00000-0 -12169-3 0  9997,2 52608  53.2176 152.7361 0001513 102.6716 257.4446 15.08844510 70202,6917.867,95.437,540.778,538.685,0.0
52608.0,STARLINK-3979,PAYLOAD,2023-08-19 18:51:36,15.08837924,0.0001502,53.2176,147.0916,95.4957,264.6207,-2.2432e-05,-6.45e-06,0.0,0 STARLINK-3979,1 52608U 22052L   23231.78584134 -.00000645  00000-0 -22432-4 0  9997,2 52608  53.2176 147.0916 0001502  95.4957 264.6207 15.08837924 70395,6917.887,95.438,540.791,538.713,0.0
52608.0,STARLINK-3979,PAYLOAD,2023-08-20 18:42:21,15.08871983,0.0002069,53.2186,142.6309,48.1753,311.9415,0.00044334,6.781e-05,0.0,0 STARLINK-3979,1 52608U 22052L   23232.77941312  .00006781  00000-0  44334-3 0  9991,2 52608  53.2186 142.6309 0002069  48.1753 311.9415 15.08871983 70548,6917.783,95.436,541.079,538.216,0.0
52608.0,STARLINK-3979,PAYLOAD,2023-08-20 23:28:32,15.08844636,0.0001548,53.218,141.7383,98.9247,261.192,0.00015102,2.117e-05,0.0,0 STARLINK-3979,1 52608U 22052L   23232.97815929  .00002117  00000-0  15102-3 0  9997,2 52608  53.2180 141.7383 0001548  98.9247 261.1920 15.08844636 70571,6917.866,95.437,540.802,538.66,0.0
52608.0,STARLINK-3979,PAYLOAD,2023-08-22 02:30:06,15.08838625,9.88e-05,53.2175,136.6833,67.527,292.5826,0.00014162,1.967e-05,0.0,0 STARLINK-3979,1 52608U 22052L   23234.10424150  .00001967  00000-0  14162-3 0  9993,2 52608  53.2175 136.6833 0000988  67.5270 292.5826 15.08838625 70746,6917.885,95.438,540.433,539.066,0.0
52608.0,STARLINK-3979,PAYLOAD,2023-08-23 02:20:54,15.08846744,0.0001354,53.2171,132.2188,71.7072,288.4067,-0.00046034,-7.608e-05,0.0,0 STARLINK-3979,1 52608U 22052L   23235.09785814 -.00007608  00000-0 -46034-3 0  9992,2 52608  53.2171 132.2188 0001354  71.7072 288.4067 15.08846744 70890,6917.86,95.437,540.661,538.788,0.0
52608.0,STARLINK-3979,PAYLOAD,2023-08-24 02:11:40,15.08857421,0.0001189,53.2176,127.7627,91.2964,268.8164,0.00018915,2.725e-05,0.0,0 STARLINK-3979,1 52608U 22052L   23236.09143720  .00002725  00000-0  18915-3 0  9997,2 52608  53.2176 127.7627 0001189  91.2964 268.8164 15.08857421 70675,6917.827,95.436,540.515,538.87,0.0
52608.0,STARLINK-3979,PAYLOAD,2023-08-25 02:02:28,15.08844418,0.0001428,53.2181,123.3039,73.6615,286.4534,0.00023197,3.406e-05,0.0,0 STARLINK-3979,1 52608U 22052L   23237.08504646  .00003406  00000-0  23197-3 0  9990,2 52608  53.2181 123.3039 0001428  73.6615 286.4534 15.08844418 71190,6917.867,95.437,540.72,538.744,0.0
52608.0,STARLINK-3979,PAYLOAD,2023-08-25 21:07:05,15.08851585,0.0001405,53.218,119.7343,74.4603,285.6544,-7.4812e-05,-1.479e-05,0.0,0 STARLINK-3979,1 52608U 22052L   23237.87992639 -.00001479  00000-0 -74812-4 0  9991,2 52608  53.2180 119.7343 0001405  74.4603 285.6544 15.08851585 70944,6917.845,95.437,540.682,538.738,0.0
52608.0,STARLINK-3979,PAYLOAD,2023-08-26 01:53:14,15.0885329,0.0001372,53.2178,118.8414,78.0412,282.0734,-5.6138e-05,-1.182e-05,0.0,0 STARLINK-3979,1 52608U 22052L   23238.07864252 -.00001182  00000-0 -56138-4 0  9995,2 52608  53.2178 118.8414 0001372  78.0412 282.0734 15.08853290 70971,6917.84,95.437,540.654,538.756,0.0
52608.0,STARLINK-3979,PAYLOAD,2023-08-26 16:11:43,15.08837236,0.0001597,53.217,116.1646,90.8139,269.3036,-5.2605e-06,-3.72e-06,0.0,0 STARLINK-3979,1 52608U 22052L   23238.67480648 -.00000372  00000-0 -52605-5 0  9990,2 52608  53.2170 116.1646 0001597  90.8139 269.3036 15.08837236 71435,6917.889,95.438,540.859,538.649,0.0
52608.0,STARLINK-3979,PAYLOAD,2023-08-26 20:57:52,15.08838111,0.0001469,53.2171,115.2726,91.0815,269.0346,8.6424e-06,-1.5e-06,0.0,0 STARLINK-3979,1 52608U 22052L   23238.87352522 -.00000150  00000-0  86424-5 0  9990,2 52608  53.2171 115.2726 0001469  91.0815 269.0346 15.08838111 71093,6917.886,95.438,540.767,538.735,0.0
52608.0,STARLINK-3979,PAYLOAD,2023-08-27 01:44:01,15.08839006,0.0001432,53.2174,114.3802,90.9263,269.1894,1.5148e-05,-4.7e-07,0.0,0 STARLINK-3979,1 52608U 22052L   23239.07224449 -.00000047  00000-0  15148-4 0  9998,2 52608  53.2174 114.3802 0001432  90.9263 269.1894 15.08839006 71123,6917.883,95.438,540.739,538.758,0.0
52608.0,STARLINK-3979,PAYLOAD,2023-08-27 20:48:39,15.0883599,0.0001375,53.2173,110.8109,96.3398,263.7751,-2.3538e-05,-6.62e-06,0.0,0 STARLINK-3979,1 52608U 22052L   23239.86712924 -.00000662  00000-0 -23538-4 0  9991,2 52608  53.2173 110.8109 0001375  96.3398 263.7751 15.08835990 71241,6917.893,95.438,540.709,538.806,0.0
52608.0,STARLINK-3979,PAYLOAD,2023-08-28 01:34:49,15.08837283,0.0001367,53.2173,109.9202,89.9049,270.21,-1.2884e-05,-4.93e-06,0.0,0 STARLINK-3979,1 52608U 22052L   23240.06584898 -.00000493  00000-0 -12884-4 0  9996,2 52608  53.2173 109.9202 0001367  89.9049 270.2100 15.08837283 71648,6917.889,95.438,540.699,538.808,0.0
52608.0,STARLINK-3979,PAYLOAD,2023-08-28 20:39:27,15.0883605,0.0001347,53.2177,106.3515,83.0538,277.0608,3.1354e-05,2.11e-06,0.0,0 STARLINK-3979,1 52608U 22052L   23240.86073143  .00000211  00000-0  31354-4 0  9999,2 52608  53.2177 106.3515 0001347  83.0538 277.0608 15.08836050 71397,6917.892,95.438,540.689,538.826,0.0
52608.0,STARLINK-3979,PAYLOAD,2023-08-29 07:47:09,15.08839305,0.0001319,53.2176,104.2708,83.2428,276.8714,1.073e-05,-1.17e-06,0.0,0 STARLINK-3979,1 52608U 22052L   23241.32441070 -.00000117  00000-0  10730-4 0  9990,2 52608  53.2176 104.2708 0001319  83.2428 276.8714 15.08839305 71836,6917.883,95.438,540.66,538.835,0.0
52608.0,STARLINK-3979,PAYLOAD,2023-08-29 20:30:14,15.08833355,0.000143,53.2177,101.8927,86.9713,273.1443,3.3913e-05,2.52e-06,0.0,0 STARLINK-3979,1 52608U 22052L   23241.85433659  .00000252  00000-0  33913-4 0  9999,2 52608  53.2177 101.8927 0001430  86.9713 273.1443 15.08833355 71540,6917.901,95.438,540.755,538.776,0.0
52608.0,STARLINK-3979,PAYLOAD,2023-08-30 01:16:25,15.08774673,0.0001753,53.218,101.0004,88.1957,271.9236,0.00090066,0.0001405,0.0,0 STARLINK-3979,1 52608U 22052L   23242.05306753  .00014050  00000-0  90066-3 0  9998,2 52608  53.2180 101.0004 0001753  88.1957 271.9236 15.08774673 71941,6918.08,95.442,541.158,538.732,0.0
52608.0,STARLINK-3979,PAYLOAD,2023-08-30 07:37:56,15.08838578,0.0001444,53.218,99.811,87.66,272.4558,6.6377e-05,7.69e-06,0.0,0 STARLINK-3979,1 52608U 22052L   23242.31801319  .00000769  00000-0  66377-4 0  9996,2 52608  53.2180  99.8110 0001444  87.6600 272.4558 15.08838578 71981,6917.885,95.438,540.749,538.751,0.0
52608.0,STARLINK-3979,PAYLOAD,2023-08-30 23:31:47,15.08847767,0.0001416,53.2177,96.8371,88.1013,272.0142,9.233e-05,1.182e-05,0.0,0 STARLINK-3979,1 52608U 22052L   23242.98040545  .00001182  00000-0  92330-4 0  9993,2 52608  53.2177  96.8371 0001416  88.1013 272.0142 15.08847767 72083,6917.857,95.437,540.701,538.742,0.0
52608.0,STARLINK-3979,PAYLOAD,2023-08-31 23:22:34,15.08839952,9.85e-05,53.2175,92.3759,101.3629,258.7474,9.8696e-06,-1.31e-06,0.0,0 STARLINK-3979,1 52608U 22052L   23243.97401059 -.00000131  00000-0  98696-5 0  9990,2 52608  53.2175  92.3759 0000985 101.3629 258.7474 15.08839952 72236,6917.881,95.438,540.427,539.064,0.0
52608.0,STARLINK-3979,PAYLOAD,2023-09-01 07:19:30,15.08841818,9.73e-05,53.2174,90.8891,103.3887,256.7214,9.3016e-06,-1.4e-06,0.0,0 STARLINK-3979,1 52608U 22052L   23244.30520925 -.00000140  00000-0  93016-5 0  9993,2 52608  53.2174  90.8891 0000973 103.3887 256.7214 15.08841818 71918,6917.875,95.437,540.413,539.067,0.0
52608.0,STARLINK-3979,PAYLOAD,2023-09-01 20:02:34,15.0885439,8.7e-05,53.2194,88.5112,77.9718,282.1371,-0.00014793,-2.642e-05,0.0,0 STARLINK-3979,1 52608U 22052L   23244.83512387 -.00002642  00000-0 -14793-3 0  9997,2 52608  53.2194  88.5112 0000870  77.9718 282.1371 15.08854390 72361,6917.836,95.437,540.303,539.1,0.0
52608.0,STARLINK-3979,PAYLOAD,2023-09-01 21:37:58,15.08842896,0.0001463,53.2178,88.2126,84.9655,275.1504,7.5778e-05,9.18e-06,0.0,0 STARLINK-3979,1 52608U 22052L   23244.90136653  .00000918  00000-0  75778-4 0  9996,2 52608  53.2178  88.2126 0001463  84.9655 275.1504 15.08842896 72001,6917.872,95.437,540.749,538.724,0.0
52608.0,STARLINK-3979,PAYLOAD,2023-09-02 16:42:36,15.0883619,0.0001461,53.218,84.6437,85.5176,274.5983,1.2885e-05,-8.3e-07,0.0,0 STARLINK-3979,1 52608U 22052L   23245.69625333 -.00000083  00000-0  12885-4 0  9995,2 52608  53.2180  84.6437 0001461  85.5176 274.5983 15.08836190 72499,6917.892,95.438,540.768,538.746,0.0
52608.0,STARLINK-3979,PAYLOAD,2023-09-02 19:53:22,15.08825943,0.0001589,53.2182,84.0453,104.1003,256.0166,0.00019836,2.869e-05,0.0,0 STARLINK-3979,1 52608U 22052L   23245.82873081  .00002869  00000-0  19836-3 0  9990,2 52608  53.2182  84.0453 0001589 104.1003 256.0166 15.08825943 72145,6917.923,95.438,540.888,538.689,0.0
52608.0,STARLINK-3979,PAYLOAD,2023-09-02 23:04:08,15.08838758,0.000149,53.2184,83.4511,101.3485,258.7675,4.4872e-05,4.26e-06,0.0,0 STARLINK-3979,1 52608U 22052L   23245.96121013  .00000426  00000-0  44872-4 0  9992,2 52608  53.2184  83.4511 0001490 101.3485 258.7675 15.08838758 72163,6917.884,95.438,540.78,538.718,0.0
52608.0,STARLINK-3979,PAYLOAD,2023-09-03 22:54:55,15.0884446,0.0001447,53.2196,78.994,78.7218,281.3936,5.8552e-05,6.44e-06,0.0,0 STARLINK-3979,1 52608U 22052L   23246.95480618  .00000644  00000-0  58552-4 0  9993,2 52608  53.2196  78.9940 0001447  78.7218 281.3936 15.08844460 72680,6917.867,95.437,540.733,538.731,0.0
